{
  "type": "FeatureCollection",
  "features": [
    {
      "type": "Feature",
      "properties": {
        "norad_id": 38709,
        "name": "EXACTVIEW-1 (ADS-1B)",
        "group": "resource",
        "lat": 10.26886010299598,
        "lon": -92.58569195363789,
        "alt_km": 817.1834767364853,
        "timestamp": "2025-12-03T13:52:09.222160+00:00",
        "meta_object_name": "EXACTVIEW-1 (ADS-1B)",
        "meta_object_id": "2012-039C",
        "meta_epoch": "2025-12-03T04:39:01.819584",
        "meta_mean_motion": 14.24901375,
        "meta_eccentricity": 0.00111522,
        "meta_inclination": 98.9635,
        "meta_ra_of_asc_node": 85.3837,
        "meta_arg_of_pericenter": 21.4739,
        "meta_mean_anomaly": 338.6905,
        "meta_ephemeris_type": 0,
        "meta_classification_type": "U",
        "meta_norad_cat_id": 38709,
        "meta_element_set_no": 999,
        "meta_rev_at_epoch": 69479,
        "meta_bstar": 0.00011658335,
        "meta_mean_motion_dot": 2.26e-06,
        "meta_mean_motion_ddot": 0,
        "tle_line1": "1 38709U 12039C   25337.19377106  .00000226  00000+0  11658-3 0  9999",
        "tle_line2": "2 38709  98.9635  85.3837 0011152  21.4739 338.6905 14.24901375694794"
      },
      "geometry": {
        "type": "Point",
        "coordinates": [
          -92.58569195363789,
          10.26886010299598
        ]
      }
    },
    {
      "type": "Feature",
      "properties": {
        "norad_id": 38755,
        "name": "SPOT 6",
        "group": "resource",
        "lat": 11.105098797523363,
        "lon": -135.85597237346553,
        "alt_km": 698.9017017376027,
        "timestamp": "2025-12-03T13:52:09.222170+00:00",
        "meta_object_name": "SPOT 6",
        "meta_object_id": "2012-047A",
        "meta_epoch": "2025-12-03T08:09:33.528960",
        "meta_mean_motion": 14.58588589,
        "meta_eccentricity": 0.000104,
        "meta_inclination": 98.1585,
        "meta_ra_of_asc_node": 42.2969,
        "meta_arg_of_pericenter": 100.1225,
        "meta_mean_anomaly": 260.0092,
        "meta_ephemeris_type": 0,
        "meta_classification_type": "U",
        "meta_norad_cat_id": 38755,
        "meta_element_set_no": 999,
        "meta_rev_at_epoch": 70450,
        "meta_bstar": 0.00014973499,
        "meta_mean_motion_dot": 6.51e-06,
        "meta_mean_motion_ddot": 0,
        "tle_line1": "1 38755U 12047A   25337.33997140  .00000651  00000+0  14973-3 0  9996",
        "tle_line2": "2 38755  98.1585  42.2969 0001040 100.1225 260.0092 14.58588589704500"
      },
      "geometry": {
        "type": "Point",
        "coordinates": [
          -135.85597237346553,
          11.105098797523363
        ]
      }
    },
    {
      "type": "Feature",
      "properties": {
        "norad_id": 39019,
        "name": "PLEIADES 1B",
        "group": "resource",
        "lat": 67.35790953022412,
        "lon": 30.199931087876752,
        "alt_km": 690.4865356868504,
        "timestamp": "2025-12-03T13:52:09.222181+00:00",
        "meta_object_name": "PLEIADES 1B",
        "meta_object_id": "2012-068A",
        "meta_epoch": "2025-12-03T08:36:55.917792",
        "meta_mean_motion": 14.58537841,
        "meta_eccentricity": 0.00012558,
        "meta_inclination": 98.1807,
        "meta_ra_of_asc_node": 50.1584,
        "meta_arg_of_pericenter": 87.7232,
        "meta_mean_anomaly": 272.4111,
        "meta_ephemeris_type": 0,
        "meta_classification_type": "U",
        "meta_norad_cat_id": 39019,
        "meta_element_set_no": 999,
        "meta_rev_at_epoch": 69230,
        "meta_bstar": 0.0001510489,
        "meta_mean_motion_dot": 6.56e-06,
        "meta_mean_motion_ddot": 0,
        "tle_line1": "1 39019U 12068A   25337.35898053  .00000656  00000+0  15105-3 0  9991",
        "tle_line2": "2 39019  98.1807  50.1584 0001255  87.7232 272.4111 14.58537841692306"
      },
      "geometry": {
        "type": "Point",
        "coordinates": [
          30.199931087876752,
          67.35790953022412
        ]
      }
    },
    {
      "type": "Feature",
      "properties": {
        "norad_id": 39030,
        "name": "GOKTURK 2",
        "group": "resource",
        "lat": 81.59696225740726,
        "lon": 65.84056364601922,
        "alt_km": 636.2858796515447,
        "timestamp": "2025-12-03T13:52:09.222192+00:00",
        "meta_object_name": "GOKTURK 2",
        "meta_object_id": "2012-073A",
        "meta_epoch": "2025-12-03T08:33:50.906016",
        "meta_mean_motion": 14.75269862,
        "meta_eccentricity": 8.021e-05,
        "meta_inclination": 97.6899,
        "meta_ra_of_asc_node": 179.4715,
        "meta_arg_of_pericenter": 95.1653,
        "meta_mean_anomaly": 264.9649,
        "meta_ephemeris_type": 0,
        "meta_classification_type": "U",
        "meta_norad_cat_id": 39030,
        "meta_element_set_no": 999,
        "meta_rev_at_epoch": 69563,
        "meta_bstar": 0.00015513904,
        "meta_mean_motion_dot": 1.003e-05,
        "meta_mean_motion_ddot": 0,
        "tle_line1": "1 39030U 12073A   25337.35683919  .00001003  00000+0  15514-3 0  9994",
        "tle_line2": "2 39030  97.6899 179.4715 0000802  95.1653 264.9649 14.75269862695637"
      },
      "geometry": {
        "type": "Point",
        "coordinates": [
          65.84056364601922,
          81.59696225740726
        ]
      }
    },
    {
      "type": "Feature",
      "properties": {
        "norad_id": 39084,
        "name": "LANDSAT 8",
        "group": "resource",
        "lat": -71.88984370864436,
        "lon": 71.97717132697632,
        "alt_km": 710.4779028698094,
        "timestamp": "2025-12-03T13:52:09.222203+00:00",
        "meta_object_name": "LANDSAT 8",
        "meta_object_id": "2013-008A",
        "meta_epoch": "2025-12-03T07:36:55.081152",
        "meta_mean_motion": 14.57125133,
        "meta_eccentricity": 0.0001067,
        "meta_inclination": 98.2084,
        "meta_ra_of_asc_node": 45.5294,
        "meta_arg_of_pericenter": 88.7105,
        "meta_mean_anomaly": 271.4215,
        "meta_ephemeris_type": 0,
        "meta_classification_type": "U",
        "meta_norad_cat_id": 39084,
        "meta_element_set_no": 999,
        "meta_rev_at_epoch": 66937,
        "meta_bstar": 0.00016125481,
        "meta_mean_motion_dot": 6.82e-06,
        "meta_mean_motion_ddot": 0,
        "tle_line1": "1 39084U 13008A   25337.31730418  .00000682  00000+0  16125-3 0  9996",
        "tle_line2": "2 39084  98.2084  45.5294 0001067  88.7105 271.4215 14.57125133669374"
      },
      "geometry": {
        "type": "Point",
        "coordinates": [
          71.97717132697632,
          -71.88984370864436
        ]
      }
    },
    {
      "type": "Feature",
      "properties": {
        "norad_id": 39086,
        "name": "SARAL",
        "group": "resource",
        "lat": -6.263095138685118,
        "lon": 162.57367227164002,
        "alt_km": 787.5224365119111,
        "timestamp": "2025-12-03T13:52:09.222214+00:00",
        "meta_object_name": "SARAL",
        "meta_object_id": "2013-009A",
        "meta_epoch": "2025-12-03T07:11:40.159968",
        "meta_mean_motion": 14.32751634,
        "meta_eccentricity": 0.00026204,
        "meta_inclination": 98.5506,
        "meta_ra_of_asc_node": 161.3532,
        "meta_arg_of_pericenter": 126.7285,
        "meta_mean_anomaly": 233.414,
        "meta_ephemeris_type": 0,
        "meta_classification_type": "U",
        "meta_norad_cat_id": 39086,
        "meta_element_set_no": 999,
        "meta_rev_at_epoch": 66755,
        "meta_bstar": 9.686702e-05,
        "meta_mean_motion_dot": 2.2e-06,
        "meta_mean_motion_ddot": 0,
        "tle_line1": "1 39086U 13009A   25337.29977037  .00000220  00000+0  96867-4 0  9996",
        "tle_line2": "2 39086  98.5506 161.3532 0002620 126.7285 233.4140 14.32751634667555"
      },
      "geometry": {
        "type": "Point",
        "coordinates": [
          162.57367227164002,
          -6.263095138685118
        ]
      }
    },
    {
      "type": "Feature",
      "properties": {
        "norad_id": 39150,
        "name": "GAOFEN-1",
        "group": "resource",
        "lat": 49.04455867356039,
        "lon": -122.35490294602995,
        "alt_km": 626.669997035594,
        "timestamp": "2025-12-03T13:52:09.222224+00:00",
        "meta_object_name": "GAOFEN-1",
        "meta_object_id": "2013-018A",
        "meta_epoch": "2025-12-03T08:24:05.558976",
        "meta_mean_motion": 14.76506542,
        "meta_eccentricity": 0.00176416,
        "meta_inclination": 97.9339,
        "meta_ra_of_asc_node": 48.1749,
        "meta_arg_of_pericenter": 172.5038,
        "meta_mean_anomaly": 187.6439,
        "meta_ephemeris_type": 0,
        "meta_classification_type": "U",
        "meta_norad_cat_id": 39150,
        "meta_element_set_no": 999,
        "meta_rev_at_epoch": 67934,
        "meta_bstar": 0.00018825363,
        "meta_mean_motion_dot": 1.264e-05,
        "meta_mean_motion_ddot": 0,
        "tle_line1": "1 39150U 13018A   25337.35006434  .00001264  00000+0  18825-3 0  9995",
        "tle_line2": "2 39150  97.9339  48.1749 0017641 172.5038 187.6439 14.76506542679345"
      },
      "geometry": {
        "type": "Point",
        "coordinates": [
          -122.35490294602995,
          49.04455867356039
        ]
      }
    }
  ]
}